[{"OBJECT_NAME":"SCD 1","OBJECT_ID":"1993-009B","EPOCH":"2026-03-29T03:05:53.204928","MEAN_MOTION":14.46080001,"ECCENTRICITY":0.0041919,"INCLINATION":24.9707,"RA_OF_ASC_NODE":341.8747,"ARG_OF_PERICENTER":10.9961,"MEAN_ANOMALY":140.3672,"EPHEMERIS_TYPE":0,"CLASSIFICATION_TYPE":"U","NORAD_CAT_ID":22490,"ELEMENT_SET_NO":999,"REV_AT_EPOCH":74951,"BSTAR":9.6928e-5,"MEAN_MOTION_DOT":5.4e-6,"MEAN_MOTION_DDOT":0},{"OBJECT_NAME":"TECHSAT 1B (GO-32)","OBJECT_ID":"1998-043D","EPOCH":"2026-03-28T23:41:10.411584","MEAN_MOTION":14.244112,"ECCENTRICITY":0.0002345,"INCLINATION":99.0048,"RA_OF_ASC_NODE":78.7352,"ARG_OF_PERICENTER":88.2224,"MEAN_ANOMALY":271.9223,"EPHEMERIS_TYPE":0,"CLASSIFICATION_TYPE":"U","NORAD_CAT_ID":25397,"ELEMENT_SET_NO":999,"REV_AT_EPOCH":43991,"BSTAR":6.2958e-5,"MEAN_MOTION_DOT":9.9e-7,"MEAN_MOTION_DDOT":0},{"OBJECT_NAME":"SCD 2","OBJECT_ID":"1998-060A","EPOCH":"2026-03-29T00:43:00.305760","MEAN_MOTION":14.4549263,"ECCENTRICITY":0.0016802,"INCLINATION":24.9946,"RA_OF_ASC_NODE":206.4784,"ARG_OF_PERICENTER":356.9692,"MEAN_ANOMALY":163.8858,"EPHEMERIS_TYPE":0,"CLASSIFICATION_TYPE":"U","NORAD_CAT_ID":25504,"ELEMENT_SET_NO":999,"REV_AT_EPOCH":44871,"BSTAR":7.065e-5,"MEAN_MOTION_DOT":4.35e-6,"MEAN_MOTION_DDOT":0},{"OBJECT_NAME":"DLR-TUBSAT","OBJECT_ID":"1999-029B","EPOCH":"2026-03-29T05:48:50.587488","MEAN_MOTION":14.52404644,"ECCENTRICITY":0.0013274,"INCLINATION":98.6681,"RA_OF_ASC_NODE":81.1257,"ARG_OF_PERICENTER":230.4491,"MEAN_ANOMALY":129.5531,"EPHEMERIS_TYPE":0,"CLASSIFICATION_TYPE":"U","NORAD_CAT_ID":25757,"ELEMENT_SET_NO":999,"REV_AT_EPOCH":42164,"BSTAR":5.1211e-5,"MEAN_MOTION_DOT":1.6e-6,"MEAN_MOTION_DDOT":0},{"OBJECT_NAME":"TERRA","OBJECT_ID":"1999-068A","EPOCH":"2026-03-29T04:00:15.432192","MEAN_MOTION":14.61034969,"ECCENTRICITY":0.0003577,"INCLINATION":97.9552,"RA_OF_ASC_NODE":140.8535,"ARG_OF_PERICENTER":110.9538,"MEAN_ANOMALY":318.4372,"EPHEMERIS_TYPE":0,"CLASSIFICATION_TYPE":"U","NORAD_CAT_ID":25994,"ELEMENT_SET_NO":999,"REV_AT_EPOCH":39792,"BSTAR":0.00010519,"MEAN_MOTION_DOT":4.72e-6,"MEAN_MOTION_DDOT":0},{"OBJECT_NAME":"MAROC-TUBSAT","OBJECT_ID":"2001-056D","EPOCH":"2026-03-29T01:25:48.717696","MEAN_MOTION":13.70258948,"ECCENTRICITY":0.0019666,"INCLINATION":99.8036,"RA_OF_ASC_NODE":263.417,"ARG_OF_PERICENTER":350.4086,"MEAN_ANOMALY":124.226,"EPHEMERIS_TYPE":0,"CLASSIFICATION_TYPE":"U","NORAD_CAT_ID":27004,"ELEMENT_SET_NO":999,"REV_AT_EPOCH":21521,"BSTAR":4.3015e-5,"MEAN_MOTION_DOT":-9.0e-8,"MEAN_MOTION_DDOT":0},{"OBJECT_NAME":"AQUA","OBJECT_ID":"2002-022A","EPOCH":"2026-03-29T04:41:15.252288","MEAN_MOTION":14.6202158,"ECCENTRICITY":0.0001155,"INCLINATION":98.4206,"RA_OF_ASC_NODE":55.9204,"ARG_OF_PERICENTER":117.6858,"MEAN_ANOMALY":331.7498,"EPHEMERIS_TYPE":0,"CLASSIFICATION_TYPE":"U","NORAD_CAT_ID":27424,"ELEMENT_SET_NO":999,"REV_AT_EPOCH":27158,"BSTAR":0.00025591,"MEAN_MOTION_DOT":1.234e-5,"MEAN_MOTION_DDOT":0},{"OBJECT_NAME":"IRS-P6 (RESOURCESAT-1)","OBJECT_ID":"2003-046A","EPOCH":"2026-03-29T04:21:45.624384","MEAN_MOTION":14.36128019,"ECCENTRICITY":0.0063294,"INCLINATION":98.2014,"RA_OF_ASC_NODE":128.5808,"ARG_OF_PERICENTER":221.544,"MEAN_ANOMALY":229.7799,"EPHEMERIS_TYPE":0,"CLASSIFICATION_TYPE":"U","NORAD_CAT_ID":28051,"ELEMENT_SET_NO":999,"REV_AT_EPOCH":16904,"BSTAR":4.1765e-5,"MEAN_MOTION_DOT":8.3e-7,"MEAN_MOTION_DDOT":0},{"OBJECT_NAME":"SHIYAN-1 (SY-1)","OBJECT_ID":"2004-012A","EPOCH":"2026-03-29T03:26:53.367936","MEAN_MOTION":15.31629285,"ECCENTRICITY":0.0004585,"INCLINATION":97.8741,"RA_OF_ASC_NODE":161.1329,"ARG_OF_PERICENTER":306.4078,"MEAN_ANOMALY":53.6739,"EPHEMERIS_TYPE":0,"CLASSIFICATION_TYPE":"U","NORAD_CAT_ID":28220,"ELEMENT_SET_NO":999,"REV_AT_EPOCH":19883,"BSTAR":0.00059042,"MEAN_MOTION_DOT":0.00017976,"MEAN_MOTION_DDOT":0},{"OBJECT_NAME":"AURA","OBJECT_ID":"2004-026A","EPOCH":"2026-03-29T03:28:46.432704","MEAN_MOTION":14.61193359,"ECCENTRICITY":0.0001315,"INCLINATION":98.3341,"RA_OF_ASC_NODE":43.9784,"ARG_OF_PERICENTER":94.6351,"MEAN_ANOMALY":265.4999,"EPHEMERIS_TYPE":0,"CLASSIFICATION_TYPE":"U","NORAD_CAT_ID":28376,"ELEMENT_SET_NO":999,"REV_AT_EPOCH":15452,"BSTAR":0.00026151,"MEAN_MOTION_DOT":1.24e-5,"MEAN_MOTION_DDOT":0},{"OBJECT_NAME":"IRS-P5 (CARTOSAT-1)","OBJECT_ID":"2005-017A","EPOCH":"2026-03-29T01:54:06.742944","MEAN_MOTION":14.90831044,"ECCENTRICITY":0.0001356,"INCLINATION":97.5389,"RA_OF_ASC_NODE":114.7603,"ARG_OF_PERICENTER":50.4747,"MEAN_ANOMALY":309.6591,"EPHEMERIS_TYPE":0,"CLASSIFICATION_TYPE":"U","NORAD_CAT_ID":28649,"ELEMENT_SET_NO":999,"REV_AT_EPOCH":13188,"BSTAR":0.00018344,"MEAN_MOTION_DOT":1.753e-5,"MEAN_MOTION_DDOT":0},{"OBJECT_NAME":"SINAH 1","OBJECT_ID":"2005-043D","EPOCH":"2026-03-29T05:34:37.502400","MEAN_MOTION":14.64095185,"ECCENTRICITY":0.0014905,"INCLINATION":98.2722,"RA_OF_ASC_NODE":222.1423,"ARG_OF_PERICENTER":162.2666,"MEAN_ANOMALY":197.9059,"EPHEMERIS_TYPE":0,"CLASSIFICATION_TYPE":"U","NORAD_CAT_ID":28893,"ELEMENT_SET_NO":999,"REV_AT_EPOCH":8882,"BSTAR":0.00012688,"MEAN_MOTION_DOT":6.18e-6,"MEAN_MOTION_DDOT":0},{"OBJECT_NAME":"RESURS-DK 1","OBJECT_ID":"2006-021A","EPOCH":"2026-03-28T23:24:06.485184","MEAN_MOTION":15.12864225,"ECCENTRICITY":0.0001231,"INCLINATION":69.9338,"RA_OF_ASC_NODE":187.136,"ARG_OF_PERICENTER":52.534,"MEAN_ANOMALY":307.5938,"EPHEMERIS_TYPE":0,"CLASSIFICATION_TYPE":"U","NORAD_CAT_ID":29228,"ELEMENT_SET_NO":999,"REV_AT_EPOCH":9044,"BSTAR":0.00015424,"MEAN_MOTION_DOT":2.612e-5,"MEAN_MOTION_DDOT":0},{"OBJECT_NAME":"ARIRANG-2 (KOMPSAT-2)","OBJECT_ID":"2006-031A","EPOCH":"2026-03-29T04:05:11.855040","MEAN_MOTION":14.64603924,"ECCENTRICITY":0.0013845,"INCLINATION":97.8314,"RA_OF_ASC_NODE":276.4838,"ARG_OF_PERICENTER":332.896,"MEAN_ANOMALY":161.5013,"EPHEMERIS_TYPE":0,"CLASSIFICATION_TYPE":"U","NORAD_CAT_ID":29268,"ELEMENT_SET_NO":999,"REV_AT_EPOCH":4976,"BSTAR":3.4273e-5,"MEAN_MOTION_DOT":1.37e-6,"MEAN_MOTION_DDOT":0},{"OBJECT_NAME":"LAPAN-TUBSAT","OBJECT_ID":"2007-001A","EPOCH":"2026-03-29T04:29:39.754752","MEAN_MOTION":14.85856822,"ECCENTRICITY":0.0013594,"INCLINATION":98.1347,"RA_OF_ASC_NODE":85.6174,"ARG_OF_PERICENTER":86.2598,"MEAN_ANOMALY":274.017,"EPHEMERIS_TYPE":0,"CLASSIFICATION_TYPE":"U","NORAD_CAT_ID":29709,"ELEMENT_SET_NO":999,"REV_AT_EPOCH":3927,"BSTAR":2.502e-5,"MEAN_MOTION_DOT":1.6e-6,"MEAN_MOTION_DDOT":0},{"OBJECT_NAME":"HAIYANG-1B","OBJECT_ID":"2007-010A","EPOCH":"2026-03-28T22:42:06.562656","MEAN_MOTION":14.31005416,"ECCENTRICITY":0.0014744,"INCLINATION":98.3452,"RA_OF_ASC_NODE":72.9243,"ARG_OF_PERICENTER":79.9917,"MEAN_ANOMALY":280.293,"EPHEMERIS_TYPE":0,"CLASSIFICATION_TYPE":"U","NORAD_CAT_ID":31113,"ELEMENT_SET_NO":999,"REV_AT_EPOCH":98915,"BSTAR":6.3282e-5,"MEAN_MOTION_DOT":1.25e-6,"MEAN_MOTION_DDOT":0},{"OBJECT_NAME":"COSMO-SKYMED 1","OBJECT_ID":"2007-023A","EPOCH":"2026-03-29T04:29:43.808640","MEAN_MOTION":14.96674645,"ECCENTRICITY":9.9e-5,"INCLINATION":97.8874,"RA_OF_ASC_NODE":279.3786,"ARG_OF_PERICENTER":100.681,"MEAN_ANOMALY":259.4522,"EPHEMERIS_TYPE":0,"CLASSIFICATION_TYPE":"U","NORAD_CAT_ID":31598,"ELEMENT_SET_NO":999,"REV_AT_EPOCH":1782,"BSTAR":0.00039949,"MEAN_MOTION_DOT":4.5e-5,"MEAN_MOTION_DDOT":0}]
