SCD 1                   
1 22490U 93009B   26088.12908802  .00000540  00000+0  96928-4 0  9998
2 22490  24.9707 341.8747 0041919  10.9961 140.3672 14.46080001749515
TECHSAT 1B (GO-32)      
1 25397U 98043D   26087.98692606  .00000099  00000+0  62958-4 0  9990
2 25397  99.0048  78.7352 0002345  88.2224 271.9223 14.24411200439911
SCD 2                   
1 25504U 98060A   26088.02986465  .00000435  00000+0  70650-4 0  9996
2 25504  24.9946 206.4784 0016802 356.9692 163.8858 14.45492630448711
DLR-TUBSAT              
1 25757U 99029B   26088.24225217  .00000160  00000+0  51211-4 0  9994
2 25757  98.6681  81.1257 0013274 230.4491 129.5531 14.52404644421647
TERRA                   
1 25994U 99068A   26088.16684528  .00000472  00000+0  10519-3 0  9996
2 25994  97.9552 140.8535 0003577 110.9538 318.4372 14.61034969397924
MAROC-TUBSAT            
1 27004U 01056D   26088.05959164 -.00000009  00000+0  43015-4 0  9994
2 27004  99.8036 263.4170 0019666 350.4086 124.2260 13.70258948215212
AQUA                    
1 27424U 02022A   26088.19531542  .00001234  00000+0  25591-3 0  9993
2 27424  98.4206  55.9204 0001155 117.6858 331.7498 14.62021580271580
IRS-P6 (RESOURCESAT-1)  
1 28051U 03046A   26088.18177806  .00000083  00000+0  41765-4 0  9998
2 28051  98.2014 128.5808 0063294 221.5440 229.7799 14.36128019169046
SHIYAN-1 (SY-1)         
1 28220U 04012A   26088.14367324  .00017976  00000+0  59042-3 0  9997
2 28220  97.8741 161.1329 0004585 306.4078  53.6739 15.31629285198839
AURA                    
1 28376U 04026A   26088.14498186  .00001240  00000+0  26151-3 0  9997
2 28376  98.3341  43.9784 0001315  94.6351 265.4999 14.61193359154522
IRS-P5 (CARTOSAT-1)     
1 28649U 05017A   26088.07924471  .00001753  00000+0  18344-3 0  9998
2 28649  97.5389 114.7603 0001356  50.4747 309.6591 14.90831044131884
SINAH 1                 
1 28893U 05043D   26088.23237850  .00000618  00000+0  12688-3 0  9998
2 28893  98.2722 222.1423 0014905 162.2666 197.9059 14.64095185 88825
RESURS-DK 1             
1 29228U 06021A   26087.97507506  .00002612  00000+0  15424-3 0  9993
2 29228  69.9338 187.1360 0001231  52.5340 307.5938 15.12864225 90443
ARIRANG-2 (KOMPSAT-2)   
1 29268U 06031A   26088.17027610  .00000137  00000+0  34273-4 0  9998
2 29268  97.8314 276.4838 0013845 332.8960 161.5013 14.64603924 49763
LAPAN-TUBSAT            
1 29709U 07001A   26088.18726568  .00000160  00000+0  25020-4 0  9991
2 29709  98.1347  85.6174 0013594  86.2598 274.0170 14.85856822 39273
HAIYANG-1B              
1 31113U 07010A   26087.94590929  .00000125  00000+0  63282-4 0  9999
2 31113  98.3452  72.9243 0014744  79.9917 280.2930 14.31005416989152
COSMO-SKYMED 1          
1 31598U 07023A   26088.18731260  .00004500  00000+0  39949-3 0  9995
2 31598  97.8874 279.3786 0000990 100.6810 259.4522 14.96674645 17826
